{"fetched_at":"2026-07-15T06:35:32.501Z","source":"https://celestrak.org/NORAD/elements/gp.php?GROUP=oneweb&FORMAT=JSON","constellation":"oneweb","records":[{"OBJECT_NAME":"ONEWEB-0427","OBJECT_ID":"2021-132AG","EPOCH":"2026-07-14T21:30:05.321952","CLASSIFICATION_TYPE":"U","MEAN_MOTION":13.18686297,"ECCENTRICITY":0.00018188,"INCLINATION":87.9199,"RA_OF_ASC_NODE":329.9255,"ARG_OF_PERICENTER":91.725,"MEAN_ANOMALY":268.4091,"EPHEMERIS_TYPE":0,"NORAD_CAT_ID":50499,"ELEMENT_SET_NO":999,"REV_AT_EPOCH":22526,"BSTAR":-0.000070147248,"MEAN_MOTION_DOT":-1.5e-7,"MEAN_MOTION_DDOT":0},{"OBJECT_NAME":"ONEWEB-0429","OBJECT_ID":"2021-132AH","EPOCH":"2026-07-14T21:10:38.696448","CLASSIFICATION_TYPE":"U","MEAN_MOTION":13.18687166,"ECCENTRICITY":0.00019228,"INCLINATION":87.9189,"RA_OF_ASC_NODE":329.9505,"ARG_OF_PERICENTER":101.8765,"MEAN_ANOMALY":258.2583,"EPHEMERIS_TYPE":0,"NORAD_CAT_ID":50500,"ELEMENT_SET_NO":999,"REV_AT_EPOCH":22523,"BSTAR":-0.00014386605,"MEAN_MOTION_DOT":-4.4e-7,"MEAN_MOTION_DDOT":0},{"OBJECT_NAME":"ONEWEB-0430","OBJECT_ID":"2021-132AJ","EPOCH":"2026-07-14T20:53:38.809248","CLASSIFICATION_TYPE":"U","MEAN_MOTION":13.18688156,"ECCENTRICITY":0.0002068,"INCLINATION":87.919,"RA_OF_ASC_NODE":329.9519,"ARG_OF_PERICENTER":102.2368,"MEAN_ANOMALY":257.8996,"EPHEMERIS_TYPE":0,"NORAD_CAT_ID":50501,"ELEMENT_SET_NO":999,"REV_AT_EPOCH":22527,"BSTAR":-0.000037151216,"MEAN_MOTION_DOT":-2e-8,"MEAN_MOTION_DDOT":0},{"OBJECT_NAME":"ONEWEB-0432","OBJECT_ID":"2021-132AK","EPOCH":"2026-07-14T20:29:11.589504","CLASSIFICATION_TYPE":"U","MEAN_MOTION":13.18686455,"ECCENTRICITY":0.00023407,"INCLINATION":87.9194,"RA_OF_ASC_NODE":329.9413,"ARG_OF_PERICENTER":97.3419,"MEAN_ANOMALY":262.7979,"EPHEMERIS_TYPE":0,"NORAD_CAT_ID":50502,"ELEMENT_SET_NO":999,"REV_AT_EPOCH":22522,"BSTAR":0.00010289997,"MEAN_MOTION_DOT":5.3e-7,"MEAN_MOTION_DDOT":0},{"OBJECT_NAME":"ONEWEB-0440","OBJECT_ID":"2021-132AL","EPOCH":"2026-07-14T21:22:47.500320","CLASSIFICATION_TYPE":"U","MEAN_MOTION":13.18686783,"ECCENTRICITY":0.000169,"INCLINATION":87.9197,"RA_OF_ASC_NODE":329.9455,"ARG_OF_PERICENTER":107.2,"MEAN_ANOMALY":252.9317,"EPHEMERIS_TYPE":0,"NORAD_CAT_ID":50503,"ELEMENT_SET_NO":999,"REV_AT_EPOCH":22522,"BSTAR":-0.00000830215,"MEAN_MOTION_DOT":1e-7,"MEAN_MOTION_DDOT":0},{"OBJECT_NAME":"ONEWEB-0450","OBJECT_ID":"2021-132AM","EPOCH":"2026-07-14T21:13:16.989888","CLASSIFICATION_TYPE":"U","MEAN_MOTION":13.18686526,"ECCENTRICITY":0.00019962,"INCLINATION":87.9189,"RA_OF_ASC_NODE":329.9488,"ARG_OF_PERICENTER":103.296,"MEAN_ANOMALY":256.8395,"EPHEMERIS_TYPE":0,"NORAD_CAT_ID":50504,"ELEMENT_SET_NO":999,"REV_AT_EPOCH":22525,"BSTAR":-0.000010061687,"MEAN_MOTION_DOT":9e-8,"MEAN_MOTION_DDOT":0},{"OBJECT_NAME":"ONEWEB-0410","OBJECT_ID":"2022-012A","EPOCH":"2026-07-14T20:35:34.439136","CLASSIFICATION_TYPE":"U","MEAN_MOTION":13.17650179,"ECCENTRICITY":0.0001795,"INCLINATION":87.9155,"RA_OF_ASC_NODE":0.3546,"ARG_OF_PERICENTER":49.9493,"MEAN_ANOMALY":310.1796,"EPHEMERIS_TYPE":0,"NORAD_CAT_ID":51622,"ELEMENT_SET_NO":999,"REV_AT_EPOCH":21734,"BSTAR":-0.000007047888,"MEAN_MOTION_DOT":1e-7,"MEAN_MOTION_DDOT":0},{"OBJECT_NAME":"ONEWEB-0411","OBJECT_ID":"2022-012B","EPOCH":"2026-07-14T13:52:53.055840","CLASSIFICATION_TYPE":"U","MEAN_MOTION":13.10376749,"ECCENTRICITY":0.0002297,"INCLINATION":87.8826,"RA_OF_ASC_NODE":30.8097,"ARG_OF_PERICENTER":96.7642,"MEAN_ANOMALY":263.3747,"EPHEMERIS_TYPE":0,"NORAD_CAT_ID":51623,"ELEMENT_SET_NO":999,"REV_AT_EPOCH":21287,"BSTAR":-0.0015113,"MEAN_MOTION_DOT":-0.00000515,"MEAN_MOTION_DDOT":0},{"OBJECT_NAME":"ONEWEB-0415","OBJECT_ID":"2022-012C","EPOCH":"2026-07-14T22:57:45.367776","CLASSIFICATION_TYPE":"U","MEAN_MOTION":13.1037643,"ECCENTRICITY":0.00021083,"INCLINATION":87.8819,"RA_OF_ASC_NODE":30.7319,"ARG_OF_PERICENTER":87.4649,"MEAN_ANOMALY":272.6719,"EPHEMERIS_TYPE":0,"NORAD_CAT_ID":51624,"ELEMENT_SET_NO":999,"REV_AT_EPOCH":21292,"BSTAR":-0.0017407379,"MEAN_MOTION_DOT":-0.00000595,"MEAN_MOTION_DDOT":0},{"OBJECT_NAME":"ONEWEB-0416","OBJECT_ID":"2022-012D","EPOCH":"2026-07-14T14:05:06.729216","CLASSIFICATION_TYPE":"U","MEAN_MOTION":13.10377811,"ECCENTRICITY":0.000221,"INCLINATION":87.8816,"RA_OF_ASC_NODE":30.8226,"ARG_OF_PERICENTER":84.0735,"MEAN_ANOMALY":276.0644,"EPHEMERIS_TYPE":0,"NORAD_CAT_ID":51625,"ELEMENT_SET_NO":999,"REV_AT_EPOCH":21291,"BSTAR":-0.00036192,"MEAN_MOTION_DOT":-0.00000114,"MEAN_MOTION_DDOT":0},{"OBJECT_NAME":"ONEWEB-0422","OBJECT_ID":"2022-012E","EPOCH":"2026-07-14T22:39:29.801952","CLASSIFICATION_TYPE":"U","MEAN_MOTION":13.17650733,"ECCENTRICITY":0.00018521,"INCLINATION":87.9153,"RA_OF_ASC_NODE":0.3379,"ARG_OF_PERICENTER":112.7729,"MEAN_ANOMALY":247.3599,"EPHEMERIS_TYPE":0,"NORAD_CAT_ID":51626,"ELEMENT_SET_NO":999,"REV_AT_EPOCH":21746,"BSTAR":-0.00022992139,"MEAN_MOTION_DOT":-7.6e-7,"MEAN_MOTION_DDOT":0},{"OBJECT_NAME":"ONEWEB-0423","OBJECT_ID":"2022-012F","EPOCH":"2026-07-14T20:40:26.327712","CLASSIFICATION_TYPE":"U","MEAN_MOTION":13.17648408,"ECCENTRICITY":0.00017878,"INCLINATION":87.9145,"RA_OF_ASC_NODE":0.358,"ARG_OF_PERICENTER":90.4332,"MEAN_ANOMALY":269.7004,"EPHEMERIS_TYPE":0,"NORAD_CAT_ID":51627,"ELEMENT_SET_NO":999,"REV_AT_EPOCH":21734,"BSTAR":-0.0002198465,"MEAN_MOTION_DOT":-7.2e-7,"MEAN_MOTION_DDOT":0},{"OBJECT_NAME":"ONEWEB-0425","OBJECT_ID":"2022-012G","EPOCH":"2026-07-14T21:39:36.866592","CLASSIFICATION_TYPE":"U","MEAN_MOTION":13.10375731,"ECCENTRICITY":0.00017904,"INCLINATION":87.882,"RA_OF_ASC_NODE":30.7432,"ARG_OF_PERICENTER":76.3776,"MEAN_ANOMALY":283.7551,"EPHEMERIS_TYPE":0,"NORAD_CAT_ID":51628,"ELEMENT_SET_NO":999,"REV_AT_EPOCH":21295,"BSTAR":0.00026798036,"MEAN_MOTION_DOT":0.00000106,"MEAN_MOTION_DDOT":0},{"OBJECT_NAME":"ONEWEB-0428","OBJECT_ID":"2022-012H","EPOCH":"2026-07-14T23:00:12.240864","CLASSIFICATION_TYPE":"U","MEAN_MOTION":13.10376481,"ECCENTRICITY":0.00018039,"INCLINATION":87.8813,"RA_OF_ASC_NODE":30.7391,"ARG_OF_PERICENTER":88.041,"MEAN_ANOMALY":272.0924,"EPHEMERIS_TYPE":0,"NORAD_CAT_ID":51629,"ELEMENT_SET_NO":999,"REV_AT_EPOCH":21292,"BSTAR":-0.0017473243,"MEAN_MOTION_DOT":-0.00000597,"MEAN_MOTION_DDOT":0},{"OBJECT_NAME":"ONEWEB-0431","OBJECT_ID":"2022-012J","EPOCH":"2026-07-14T13:06:15.249312","CLASSIFICATION_TYPE":"U","MEAN_MOTION":13.10369422,"ECCENTRICITY":0.00023377,"INCLINATION":87.8814,"RA_OF_ASC_NODE":30.8141,"ARG_OF_PERICENTER":97.025,"MEAN_ANOMALY":263.1143,"EPHEMERIS_TYPE":0,"NORAD_CAT_ID":51630,"ELEMENT_SET_NO":999,"REV_AT_EPOCH":21292,"BSTAR":0.0006958179,"MEAN_MOTION_DOT":0.00000256,"MEAN_MOTION_DDOT":0},{"OBJECT_NAME":"ONEWEB-0434","OBJECT_ID":"2022-012K","EPOCH":"2026-07-14T14:24:53.063424","CLASSIFICATION_TYPE":"U","MEAN_MOTION":13.10376469,"ECCENTRICITY":0.0001586,"INCLINATION":87.8823,"RA_OF_ASC_NODE":30.8294,"ARG_OF_PERICENTER":67.7552,"MEAN_ANOMALY":292.3744,"EPHEMERIS_TYPE":0,"NORAD_CAT_ID":51631,"ELEMENT_SET_NO":999,"REV_AT_EPOCH":21291,"BSTAR":0.0014389,"MEAN_MOTION_DOT":0.00000515,"MEAN_MOTION_DDOT":0}]}
