ONEWEB-0427             
1 50499U 21132AG  26195.89589493 -.00000015  00000+0 -70147-4 0  9994
2 50499  87.9199 329.9255 0001818  91.7250 268.4091 13.18686297225267
ONEWEB-0429             
1 50500U 21132AH  26195.88239232 -.00000044  00000+0 -14387-3 0  9994
2 50500  87.9189 329.9505 0001922 101.8765 258.2583 13.18687166225233
ONEWEB-0430             
1 50501U 21132AJ  26195.87058807 -.00000002  00000+0 -37151-4 0  9990
2 50501  87.9190 329.9519 0002068 102.2368 257.8996 13.18688156225274
ONEWEB-0432             
1 50502U 21132AK  26195.85360636  .00000053  00000+0  10290-3 0  9993
2 50502  87.9194 329.9413 0002340  97.3419 262.7979 13.18686455225227
ONEWEB-0440             
1 50503U 21132AL  26195.89082755  .00000010  00000+0 -83021-5 0  9999
2 50503  87.9197 329.9455 0001690 107.2000 252.9317 13.18686783225222
ONEWEB-0450             
1 50504U 21132AM  26195.88422442  .00000009  00000+0 -10062-4 0  9992
2 50504  87.9189 329.9488 0001996 103.2960 256.8395 13.18686526225257
ONEWEB-0410             
1 51622U 22012A   26195.85803749  .00000010  00000+0 -70479-5 0  9993
2 51622  87.9155   0.3546 0001795  49.9493 310.1796 13.17650179217345
ONEWEB-0411             
1 51623U 22012B   26195.57839185 -.00000515  00000+0 -15113-2 0  9998
2 51623  87.8826  30.8097 0002297  96.7642 263.3747 13.10376749212872
ONEWEB-0415             
1 51624U 22012C   26195.95677509 -.00000595  00000+0 -17407-2 0  9997
2 51624  87.8819  30.7319 0002108  87.4649 272.6719 13.10376430212921
ONEWEB-0416             
1 51625U 22012D   26195.58688344 -.00000114  00000+0 -36192-3 0  9996
2 51625  87.8816  30.8226 0002210  84.0735 276.0644 13.10377811212918
ONEWEB-0422             
1 51626U 22012E   26195.94409493 -.00000076  00000+0 -22992-3 0  9993
2 51626  87.9153   0.3379 0001852 112.7729 247.3599 13.17650733217467
ONEWEB-0423             
1 51627U 22012F   26195.86141583 -.00000072  00000+0 -21985-3 0  9995
2 51627  87.9145   0.3580 0001787  90.4332 269.7004 13.17648408217344
ONEWEB-0425             
1 51628U 22012G   26195.90251003  .00000106  00000+0  26798-3 0  9993
2 51628  87.8820  30.7432 0001790  76.3776 283.7551 13.10375731212950
ONEWEB-0428             
1 51629U 22012H   26195.95847501 -.00000597  00000+0 -17473-2 0  9998
2 51629  87.8813  30.7391 0001803  88.0410 272.0924 13.10376481212922
ONEWEB-0431             
1 51630U 22012J   26195.54600983  .00000256  00000+0  69582-3 0  9995
2 51630  87.8814  30.8141 0002337  97.0250 263.1143 13.10369422212925
ONEWEB-0434             
1 51631U 22012K   26195.60061416  .00000515  00000+0  14389-2 0  9997
2 51631  87.8823  30.8294 0001586  67.7552 292.3744 13.10376469212918
